{"type": "FeatureCollection", "features": [ {"type": "Feature", "properties": {"norad_id": 36230, "name": "FENGYUN 1C DEB", "group": "fengyun-1c-debris", "lat": 24.383149368377342, "lon": 70.92831248180913, "alt_km": 955.03203395339, "timestamp": "2025-12-26T04:40:06.074926+00:00", "meta": {"OBJECT_NAME": "FENGYUN 1C DEB", "OBJECT_ID": "1999-025DVF", "EPOCH": "2025-12-22T01:01:35.356512", "MEAN_MOTION": 13.7530541, "ECCENTRICITY": 0.0216662, "INCLINATION": 99.5223, "RA_OF_ASC_NODE": 71.1449, "ARG_OF_PERICENTER": 117.9783, "MEAN_ANOMALY": 244.3476, "EPHEMERIS_TYPE": 0, "CLASSIFICATION_TYPE": "U", "NORAD_CAT_ID": 36230, "ELEMENT_SET_NO": 999, "REV_AT_EPOCH": 62014, "BSTAR": 0.0015305851, "MEAN_MOTION_DOT": 1.699e-05, "MEAN_MOTION_DDOT": 0}, "tle": {"line1": "1 36230U 99025DVF 25356.04277033  .00001699  00000+0  15306-2 0  9997", "line2": "2 36230  99.5223  71.1449 0216662 117.9783 244.3476 13.75305410620143"}}, "geometry": {"type": "Point", "coordinates": [70.92831248180913, 24.383149368377342]}}, {"type": "Feature", "properties": {"norad_id": 36231, "name": "FENGYUN 1C DEB", "group": "fengyun-1c-debris", "lat": -77.53913259869631, "lon": 110.91314379595123, "alt_km": 823.6605056087647, "timestamp": "2025-12-26T04:40:06.074936+00:00", "meta": {"OBJECT_NAME": "FENGYUN 1C DEB", "OBJECT_ID": "1999-025DVG", "EPOCH": "2025-12-25T15:31:35.680800", "MEAN_MOTION": 14.12014383, "ECCENTRICITY": 0.00600087, "INCLINATION": 98.6901, "RA_OF_ASC_NODE": 334.1799, "ARG_OF_PERICENTER": 296.3877, "MEAN_ANOMALY": 63.1143, "EPHEMERIS_TYPE": 0, "CLASSIFICATION_TYPE": "U", "NORAD_CAT_ID": 36231, "ELEMENT_SET_NO": 999, "REV_AT_EPOCH": 85725, "BSTAR": 0.00016050686, "MEAN_MOTION_DOT": 2.56e-06, "MEAN_MOTION_DDOT": 0}, "tle": {"line1": "1 36231U 99025DVG 25359.64694075  .00000256  00000+0  16051-3 0  9993", "line2": "2 36231  98.6901 334.1799 0060008 296.3877  63.1143 14.12014383857254"}}, "geometry": {"type": "Point", "coordinates": [110.91314379595123, -77.53913259869631]}}, {"type": "Feature", "properties": {"norad_id": 36232, "name": "FENGYUN 1C DEB", "group": "fengyun-1c-debris", "lat": 5.830376926743173, "lon": 164.75670018520606, "alt_km": 938.3467886450862, "timestamp": "2025-12-26T04:40:06.074946+00:00", "meta": {"OBJECT_NAME": "FENGYUN 1C DEB", "OBJECT_ID": "1999-025DVH", "EPOCH": "2025-12-24T16:08:42.890496", "MEAN_MOTION": 14.12517466, "ECCENTRICITY": 0.01185182, "INCLINATION": 98.7058, "RA_OF_ASC_NODE": 342.3813, "ARG_OF_PERICENTER": 354.2561, "MEAN_ANOMALY": 5.7245, "EPHEMERIS_TYPE": 0, "CLASSIFICATION_TYPE": "U", "NORAD_CAT_ID": 36232, "ELEMENT_SET_NO": 999, "REV_AT_EPOCH": 61904, "BSTAR": 0.00034453798, "MEAN_MOTION_DOT": 6.37e-06, "MEAN_MOTION_DDOT": 0}, "tle": {"line1": "1 36232U 99025DVH 25358.67271864  .00000637  00000+0  34454-3 0  9993", "line2": "2 36232  98.7058 342.3813 0118518 354.2561   5.7245 14.12517466619049"}}, "geometry": {"type": "Point", "coordinates": [164.75670018520606, 5.830376926743173]}}, {"type": "Feature", "properties": {"norad_id": 36234, "name": "FENGYUN 1C DEB", "group": "fengyun-1c-debris", "lat": -67.07592663003314, "lon": 90.66187203962566, "alt_km": 982.3291189828788, "timestamp": "2025-12-26T04:40:06.074956+00:00", "meta": {"OBJECT_NAME": "FENGYUN 1C DEB", "OBJECT_ID": "1999-025DVK", "EPOCH": "2025-12-08T10:31:28.850304", "MEAN_MOTION": 13.45655828, "ECCENTRICITY": 0.03174488, "INCLINATION": 99.0031, "RA_OF_ASC_NODE": 52.6849, "ARG_OF_PERICENTER": 39.1104, "MEAN_ANOMALY": 323.2521, "EPHEMERIS_TYPE": 0, "CLASSIFICATION_TYPE": "U", "NORAD_CAT_ID": 36234, "ELEMENT_SET_NO": 999, "REV_AT_EPOCH": 87889, "BSTAR": 0.00050484626, "MEAN_MOTION_DOT": 3.7e-06, "MEAN_MOTION_DDOT": 0}, "tle": {"line1": "1 36234U 99025DVK 25342.43852836  .00000370  00000+0  50485-3 0  9992", "line2": "2 36234  99.0031  52.6849 0317448  39.1104 323.2521 13.45655828878896"}}, "geometry": {"type": "Point", "coordinates": [90.66187203962566, -67.07592663003314]}}, {"type": "Feature", "properties": {"norad_id": 36236, "name": "FENGYUN 1C DEB", "group": "fengyun-1c-debris", "lat": 17.076800661375724, "lon": 37.026643931815876, "alt_km": 893.938560079233, "timestamp": "2025-12-26T04:40:06.074966+00:00", "meta": {"OBJECT_NAME": "FENGYUN 1C DEB", "OBJECT_ID": "1999-025DVM", "EPOCH": "2025-12-10T20:13:13.163808", "MEAN_MOTION": 13.81954009, "ECCENTRICITY": 0.0149575, "INCLINATION": 98.85, "RA_OF_ASC_NODE": 25.3566, "ARG_OF_PERICENTER": 3.3066, "MEAN_ANOMALY": 356.9043, "EPHEMERIS_TYPE": 0, "CLASSIFICATION_TYPE": "U", "NORAD_CAT_ID": 36236, "ELEMENT_SET_NO": 999, "REV_AT_EPOCH": 59721, "BSTAR": 0.00040381, "MEAN_MOTION_DOT": 4.31e-06, "MEAN_MOTION_DDOT": 0}, "tle": {"line1": "1 36236U 99025DVM 25344.84251347  .00000431  00000+0  40381-3 0  9993", "line2": "2 36236  98.8500  25.3566 0149575   3.3066 356.9043 13.81954009597212"}}, "geometry": {"type": "Point", "coordinates": [37.026643931815876, 17.076800661375724]}}, {"type": "Feature", "properties": {"norad_id": 36238, "name": "FENGYUN 1C DEB", "group": "fengyun-1c-debris", "lat": -7.474917406961547, "lon": 151.0473875624207, "alt_km": 846.4779247681154, "timestamp": "2025-12-26T04:40:06.074976+00:00", "meta": {"OBJECT_NAME": "FENGYUN 1C DEB", "OBJECT_ID": "1999-025DVP", "EPOCH": "2025-12-25T03:58:44.593824", "MEAN_MOTION": 14.1239409, "ECCENTRICITY": 0.0020156, "INCLINATION": 98.6488, "RA_OF_ASC_NODE": 331.1989, "ARG_OF_PERICENTER": 244.5976, "MEAN_ANOMALY": 115.311, "EPHEMERIS_TYPE": 0, "CLASSIFICATION_TYPE": "U", "NORAD_CAT_ID": 36238, "ELEMENT_SET_NO": 999, "REV_AT_EPOCH": 87193, "BSTAR": 7.3975e-05, "MEAN_MOTION_DOT": 9.4e-07, "MEAN_MOTION_DDOT": 0}, "tle": {"line1": "1 36238U 99025DVP 25359.16579391  .00000094  00000+0  73975-4 0  9999", "line2": "2 36238  98.6488 331.1989 0020156 244.5976 115.3110 14.12394090871935"}}, "geometry": {"type": "Point", "coordinates": [151.0473875624207, -7.474917406961547]}}, {"type": "Feature", "properties": {"norad_id": 36244, "name": "FENGYUN 1C DEB", "group": "fengyun-1c-debris", "lat": -18.216492934425183, "lon": 114.00891395821448, "alt_km": 816.8119271790247, "timestamp": "2025-12-26T04:40:06.074986+00:00", "meta": {"OBJECT_NAME": "FENGYUN 1C DEB", "OBJECT_ID": "1999-025DVV", "EPOCH": "2025-12-25T18:38:39.990336", "MEAN_MOTION": 14.25065272, "ECCENTRICITY": 0.00498125, "INCLINATION": 98.9262, "RA_OF_ASC_NODE": 110.6194, "ARG_OF_PERICENTER": 246.8234, "MEAN_ANOMALY": 112.7693, "EPHEMERIS_TYPE": 0, "CLASSIFICATION_TYPE": "U", "NORAD_CAT_ID": 36244, "ELEMENT_SET_NO": 999, "REV_AT_EPOCH": 92164, "BSTAR": 0.0017678365, "MEAN_MOTION_DOT": 4.153e-05, "MEAN_MOTION_DDOT": 0}, "tle": {"line1": "1 36244U 99025DVV 25359.77685174  .00004153  00000+0  17678-2 0  9996", "line2": "2 36244  98.9262 110.6194 0049812 246.8234 112.7693 14.25065272921647"}}, "geometry": {"type": "Point", "coordinates": [114.00891395821448, -18.216492934425183]}}, {"type": "Feature", "properties": {"norad_id": 36247, "name": "FENGYUN 1C DEB", "group": "fengyun-1c-debris", "lat": -15.377600464742079, "lon": 14.969361506250134, "alt_km": 652.3805244763616, "timestamp": "2025-12-26T04:40:06.074996+00:00", "meta": {"OBJECT_NAME": "FENGYUN 1C DEB", "OBJECT_ID": "1999-025DVY", "EPOCH": "2025-12-22T18:39:43.623072", "MEAN_MOTION": 14.33613758, "ECCENTRICITY": 0.01866308, "INCLINATION": 98.2674, "RA_OF_ASC_NODE": 9.4107, "ARG_OF_PERICENTER": 3.8688, "MEAN_ANOMALY": 356.389, "EPHEMERIS_TYPE": 0, "CLASSIFICATION_TYPE": "U", "NORAD_CAT_ID": 36247, "ELEMENT_SET_NO": 999, "REV_AT_EPOCH": 70406, "BSTAR": 0.00041952203, "MEAN_MOTION_DOT": 1.365e-05, "MEAN_MOTION_DDOT": 0}, "tle": {"line1": "1 36247U 99025DVY 25356.77758823  .00001365  00000+0  41952-3 0  9993", "line2": "2 36247  98.2674   9.4107 0186630   3.8688 356.3890 14.33613758704060"}}, "geometry": {"type": "Point", "coordinates": [14.969361506250134, -15.377600464742079]}}, {"type": "Feature", "properties": {"norad_id": 36254, "name": "FENGYUN 1C DEB", "group": "fengyun-1c-debris", "lat": -33.35745812603407, "lon": 131.44682207538617, "alt_km": 533.5996692769841, "timestamp": "2025-12-26T04:40:06.075006+00:00", "meta": {"OBJECT_NAME": "FENGYUN 1C DEB", "OBJECT_ID": "1999-025DWF", "EPOCH": "2025-12-05T14:18:33.769152", "MEAN_MOTION": 15.16034114, "ECCENTRICITY": 0.00460205, "INCLINATION": 99.5281, "RA_OF_ASC_NODE": 291.8918, "ARG_OF_PERICENTER": 66.714, "MEAN_ANOMALY": 293.892, "EPHEMERIS_TYPE": 0, "CLASSIFICATION_TYPE": "U", "NORAD_CAT_ID": 36254, "ELEMENT_SET_NO": 999, "REV_AT_EPOCH": 60668, "BSTAR": 0.005730812, "MEAN_MOTION_DOT": 0.00114745, "MEAN_MOTION_DDOT": 0}, "tle": {"line1": "1 36254U 99025DWF 25339.59622418  .00114745  00000+0  57308-2 0  9990", "line2": "2 36254  99.5281 291.8918 0046020  66.7140 293.8920 15.16034114606685"}}, "geometry": {"type": "Point", "coordinates": [131.44682207538617, -33.35745812603407]}}, {"type": "Feature", "properties": {"norad_id": 36255, "name": "FENGYUN 1C DEB", "group": "fengyun-1c-debris", "lat": -79.89054239651597, "lon": 33.26525954464491, "alt_km": 813.0481023342909, "timestamp": "2025-12-26T04:40:06.075017+00:00", "meta": {"OBJECT_NAME": "FENGYUN 1C DEB", "OBJECT_ID": "1999-025DWG", "EPOCH": "2025-12-19T13:28:01.680384", "MEAN_MOTION": 14.36594643, "ECCENTRICITY": 0.0064178, "INCLINATION": 99.4355, "RA_OF_ASC_NODE": 274.859, "ARG_OF_PERICENTER": 143.5444, "MEAN_ANOMALY": 35.1872, "EPHEMERIS_TYPE": 0, "CLASSIFICATION_TYPE": "U", "NORAD_CAT_ID": 36255, "ELEMENT_SET_NO": 999, "REV_AT_EPOCH": 64108, "BSTAR": 0.00048244, "MEAN_MOTION_DOT": 1.401e-05, "MEAN_MOTION_DDOT": 0}, "tle": {"line1": "1 36255U 99025DWG 25353.56113056  .00001401  00000+0  48244-3 0  9991", "line2": "2 36255  99.4355 274.8590 0064178 143.5444  35.1872 14.36594643641084"}}, "geometry": {"type": "Point", "coordinates": [33.26525954464491, -79.89054239651597]}}]}